NORAD_CAT_ID,OBJECT_NAME,OBJECT_TYPE,EPOCH,MEAN_MOTION,ECCENTRICITY,INCLINATION,RA_OF_ASC_NODE,ARG_OF_PERICENTER,MEAN_ANOMALY,BSTAR,MEAN_MOTION_DOT,MEAN_MOTION_DDOT,TLE_LINE0,TLE_LINE1,TLE_LINE2,SEMIMAJOR_AXIS,PERIOD,APOGEE,PERIGEE,DECAYED
56799.0,STARLINK-5953,PAYLOAD,2024-06-01 04:31:00,14.98325646,0.0003092,69.998,174.3901,269.2799,90.8006,0.00011123,1.234e-05,0.0,0 STARLINK-5953,1 56799U 23078AJ  24153.18819495  .00001234  00000-0  11123-3 0  9997,2 56799  69.9980 174.3901 0003092 269.2799  90.8006 14.98325646 56105,6950.206,96.107,574.22,569.922,0.0
56799.0,STARLINK-5953,PAYLOAD,2024-06-01 10:55:32,14.98326613,0.0003092,69.998,173.7168,269.2094,90.871,0.00011716,1.305e-05,0.0,0 STARLINK-5953,1 56799U 23078AJ  24153.45523538  .00001305  00000-0  11716-3 0  9994,2 56799  69.9980 173.7168 0003092 269.2094  90.8710 14.98326613 55882,6950.203,96.107,574.217,569.919,0.0
56799.0,STARLINK-5953,PAYLOAD,2024-06-02 04:33:01,14.98327461,0.0003117,69.998,171.8651,268.946,91.1342,0.00012342,1.38e-05,0.0,0 STARLINK-5953,1 56799U 23078AJ  24154.18959739  .00001380  00000-0  12342-3 0  9990,2 56799  69.9980 171.8651 0003117 268.9460  91.1342 14.98327461 56258,6950.201,96.107,574.232,569.899,0.0
56799.0,STARLINK-5953,PAYLOAD,2024-06-02 10:57:33,14.98328201,0.0003119,69.998,171.1919,269.2562,90.8239,0.00012628,1.414e-05,0.0,0 STARLINK-5953,1 56799U 23078AJ  24154.45663785  .00001414  00000-0  12628-3 0  9998,2 56799  69.9980 171.1919 0003119 269.2562  90.8239 14.98328201 56037,6950.198,96.107,574.231,569.896,0.0
56799.0,STARLINK-5953,PAYLOAD,2024-06-03 04:35:01,14.98334107,0.0003141,69.9979,169.3403,269.0876,90.9923,0.00014332,1.618e-05,0.0,0 STARLINK-5953,1 56799U 23078AJ  24155.19099523  .00001618  00000-0  14332-3 0  9993,2 56799  69.9979 169.3403 0003141 269.0876  90.9923 14.98334107 56407,6950.18,96.107,574.228,569.862,0.0
56799.0,STARLINK-5953,PAYLOAD,2024-06-03 10:59:34,14.98336149,0.0003147,69.998,168.6671,269.283,90.7969,0.00015139,1.714e-05,0.0,0 STARLINK-5953,1 56799U 23078AJ  24155.45803359  .00001714  00000-0  15139-3 0  9995,2 56799  69.9980 168.6671 0003147 269.2830  90.7969 14.98336149 56187,6950.174,96.107,574.226,569.852,0.0
56799.0,STARLINK-5953,PAYLOAD,2024-06-04 11:01:35,14.98333725,0.0003138,69.9982,166.1422,269.4436,90.6363,0.00010603,1.172e-05,0.0,0 STARLINK-5953,1 56799U 23078AJ  24156.45943512  .00001172  00000-0  10603-3 0  9991,2 56799  69.9982 166.1422 0003138 269.4436  90.6363 14.98333725 56599,6950.181,96.107,574.227,569.865,0.0
56799.0,STARLINK-5953,PAYLOAD,2024-06-04 17:26:07,14.98334931,0.0003136,69.9982,165.4689,269.3745,90.7054,0.00010534,1.164e-05,0.0,0 STARLINK-5953,1 56799U 23078AJ  24156.72647413  .00001164  00000-0  10534-3 0  9996,2 56799  69.9982 165.4689 0003136 269.3745  90.7054 14.98334931 56370,6950.178,96.107,574.222,569.863,0.0
56799.0,STARLINK-5953,PAYLOAD,2024-06-05 09:27:27,14.98336024,0.0003111,69.9985,163.7856,270.3703,89.7099,7.8776e-05,8.47e-06,0.0,0 STARLINK-5953,1 56799U 23078AJ  24157.39407154  .00000847  00000-0  78776-4 0  9996,2 56799  69.9985 163.7856 0003111 270.3703  89.7099 14.98336024 56472,6950.174,96.107,574.201,569.877,0.0
56799.0,STARLINK-5953,PAYLOAD,2024-06-05 17:28:08,14.98334947,0.0003105,69.9986,162.9438,270.8979,89.1824,7.2908e-05,7.77e-06,0.0,0 STARLINK-5953,1 56799U 23078AJ  24157.72787173  .00000777  00000-0  72908-4 0  9998,2 56799  69.9986 162.9438 0003105 270.8979  89.1824 14.98334947 56789,6950.178,96.107,574.201,569.885,0.0
56799.0,STARLINK-5953,PAYLOAD,2024-06-06 09:29:28,14.98330367,0.0003057,69.9987,161.2608,269.9366,90.1443,6.2954e-05,6.58e-06,0.0,0 STARLINK-5953,1 56799U 23078AJ  24158.39547426  .00000658  00000-0  62954-4 0  9995,2 56799  69.9987 161.2608 0003057 269.9366  90.1443 14.98330367 56620,6950.192,96.107,574.181,569.932,0.0
56799.0,STARLINK-5953,PAYLOAD,2024-06-06 23:54:41,14.98332744,0.0003022,69.9989,159.7464,268.1032,91.9781,3.1729e-05,2.86e-06,0.0,0 STARLINK-5953,1 56799U 23078AJ  24158.99631330  .00000286  00000-0  31729-4 0  9992,2 56799  69.9989 159.7464 0003022 268.1032  91.9781 14.98332744 56970,6950.184,96.107,574.15,569.949,0.0
56799.0,STARLINK-5953,PAYLOAD,2024-06-07 09:31:29,14.98331965,0.0002988,69.999,158.7365,267.8614,92.2202,4.1238e-05,3.99e-06,0.0,0 STARLINK-5953,1 56799U 23078AJ  24159.39687305  .00000399  00000-0  41238-4 0  9991,2 56799  69.9990 158.7365 0002988 267.8614  92.2202 14.98331965 56777,6950.187,96.107,574.129,569.975,0.0
56799.0,STARLINK-5953,PAYLOAD,2024-06-08 04:45:06,14.98332344,0.0003063,69.9987,156.7162,267.9611,92.1197,9.5935e-05,1.052e-05,0.0,0 STARLINK-5953,1 56799U 23078AJ  24160.19799121  .00001052  00000-0  95935-4 0  9991,2 56799  69.9987 156.7162 0003063 267.9611  92.1197 14.98332344 57156,6950.186,96.107,574.179,569.922,0.0
56799.0,STARLINK-5953,PAYLOAD,2024-06-08 09:33:30,14.98333711,0.0003064,69.9988,156.2115,268.5521,91.5287,0.00010566,1.168e-05,0.0,0 STARLINK-5953,1 56799U 23078AJ  24160.39827001  .00001168  00000-0  10566-3 0  9996,2 56799  69.9988 156.2115 0003064 268.5521  91.5287 14.98333711 56924,6950.181,96.107,574.176,569.917,0.0
56799.0,STARLINK-5953,PAYLOAD,2024-06-08 17:34:11,14.98331218,0.0003097,69.9987,155.3692,269.0885,90.9919,7.1514e-05,7.6e-06,0.0,0 STARLINK-5953,1 56799U 23078AJ  24160.73207183  .00000760  00000-0  71514-4 0  9995,2 56799  69.9987 155.3692 0003097 269.0885  90.9919 14.98331218 56978,6950.189,96.107,574.207,569.902,0.0
56799.0,STARLINK-5953,PAYLOAD,2024-06-09 04:47:07,14.98328319,0.0003046,69.9987,154.1912,268.6111,91.4699,3.2095e-05,2.9e-06,0.0,0 STARLINK-5953,1 56799U 23078AJ  24161.19939525  .00000290  00000-0  32095-4 0  9997,2 56799  69.9987 154.1912 0003046 268.6111  91.4699 14.98328319 57308,6950.198,96.107,574.18,569.946,0.0
56799.0,STARLINK-5953,PAYLOAD,2024-06-09 09:35:31,14.98329187,0.0003044,69.9987,153.6864,269.0413,91.0397,3.622e-05,3.39e-06,0.0,0 STARLINK-5953,1 56799U 23078AJ  24161.39967459  .00000339  00000-0  36220-4 0  9994,2 56799  69.9987 153.6864 0003044 269.0413  91.0397 14.98329187 57075,6950.195,96.107,574.176,569.945,0.0
56799.0,STARLINK-5953,PAYLOAD,2024-06-10 04:49:08,14.98333229,0.0003003,69.9988,151.6665,268.8778,91.2037,6.0665e-05,6.31e-06,0.0,0 STARLINK-5953,1 56799U 23078AJ  24162.20079114  .00000631  00000-0  60665-4 0  9992,2 56799  69.9988 151.6665 0003003 268.8778  91.2037 14.98333229 57456,6950.183,96.107,574.135,569.961,0.0
56799.0,STARLINK-5953,PAYLOAD,2024-06-10 09:37:32,14.98334971,0.000301,69.9987,151.1615,269.5446,90.5368,6.6005e-05,6.95e-06,0.0,0 STARLINK-5953,1 56799U 23078AJ  24162.40106945  .00000695  00000-0  66005-4 0  9991,2 56799  69.9987 151.1615 0003010 269.5446  90.5368 14.98334971 57222,6950.178,96.107,574.135,569.951,0.0
56799.0,STARLINK-5953,PAYLOAD,2024-06-10 16:02:04,14.98332283,0.0002972,69.9988,150.4882,269.9607,90.1211,6.7488e-05,7.12e-06,0.0,0 STARLINK-5953,1 56799U 23078AJ  24162.66811082  .00000712  00000-0  67488-4 0  9990,2 56799  69.9988 150.4882 0002972 269.9607  90.1211 14.98332283 57261,6950.186,96.107,574.116,569.985,0.0
56799.0,STARLINK-5953,PAYLOAD,2024-06-11 04:51:09,14.9832876,0.0003012,69.9987,149.1416,269.8702,90.2112,0.00011837,1.32e-05,0.0,0 STARLINK-5953,1 56799U 23078AJ  24163.20219180  .00001320  00000-0  11837-3 0  9994,2 56799  69.9987 149.1416 0003012 269.8702  90.2112 14.98328760 57603,6950.197,96.107,574.155,569.968,0.0
56799.0,STARLINK-5953,PAYLOAD,2024-06-11 08:03:25,14.98331752,0.0002938,69.9987,148.805,270.4378,89.6444,0.00010444,1.153e-05,0.0,0 STARLINK-5953,1 56799U 23078AJ  24163.33571024  .00001153  00000-0  10444-3 0  9993,2 56799  69.9987 148.8050 0002938 270.4378  89.6444 14.98331752 57364,6950.187,96.107,574.094,570.011,0.0
56799.0,STARLINK-5953,PAYLOAD,2024-06-12 06:29:18,14.98326434,0.0002914,69.9988,146.449,267.5488,92.5337,-3.5202e-05,-5.13e-06,0.0,0 STARLINK-5953,1 56799U 23078AJ  24164.27035730 -.00000513  00000-0 -35202-4 0  9997,2 56799  69.9988 146.4490 0002914 267.5488  92.5337 14.98326434 57769,6950.204,96.107,574.094,570.044,0.0
56799.0,STARLINK-5953,PAYLOAD,2024-06-12 16:06:06,14.98331047,0.0002991,69.9985,145.4387,269.9485,90.1331,-2.1438e-05,-3.49e-06,0.0,0 STARLINK-5953,1 56799U 23078AJ  24164.67091390 -.00000349  00000-0 -21438-4 0  9998,2 56799  69.9985 145.4387 0002991 269.9485  90.1331 14.98331047 57560,6950.19,96.107,574.133,569.976,0.0
56799.0,STARLINK-5953,PAYLOAD,2024-06-13 04:55:11,14.9833323,0.0003054,69.9985,144.0921,268.3726,91.7084,3.3613e-05,3.08e-06,0.0,0 STARLINK-5953,1 56799U 23078AJ  24165.20499104  .00000308  00000-0  33613-4 0  9994,2 56799  69.9985 144.0921 0003054 268.3726  91.7084 14.98333230 57907,6950.183,96.107,574.17,569.925,0.0
56799.0,STARLINK-5953,PAYLOAD,2024-06-13 08:07:27,14.98334841,0.0003043,69.9986,143.7554,268.4479,91.6331,5.1107e-05,5.17e-06,0.0,0 STARLINK-5953,1 56799U 23078AJ  24165.33850926  .00000517  00000-0  51107-4 0  9991,2 56799  69.9986 143.7554 0003043 268.4479  91.6331 14.98334841 57666,6950.178,96.107,574.158,569.928,0.0
56799.0,STARLINK-5953,PAYLOAD,2024-06-13 16:08:07,14.98330648,0.000305,69.9986,142.9137,268.9151,91.1659,5.3737e-05,5.48e-06,0.0,0 STARLINK-5953,1 56799U 23078AJ  24165.67231116  .00000548  00000-0  53737-4 0  9997,2 56799  69.9986 142.9137 0003050 268.9151  91.1659 14.98330648 57719,6950.191,96.107,574.176,569.936,0.0
56799.0,STARLINK-5953,PAYLOAD,2024-06-14 08:09:28,14.98330631,0.0003054,69.9988,141.2304,268.913,91.1679,9.2408e-05,1.01e-05,0.0,0 STARLINK-5953,1 56799U 23078AJ  24166.33991094  .00001010  00000-0  92408-4 0  9992,2 56799  69.9988 141.2304 0003054 268.9130  91.1679 14.98330631 57815,6950.191,96.107,574.179,569.933,0.0
56799.0,STARLINK-5953,PAYLOAD,2024-06-14 22:34:40,14.98331968,0.0002964,69.9991,139.7152,269.0613,91.0206,3.2574e-05,2.96e-06,0.0,0 STARLINK-5953,1 56799U 23078AJ  24166.94075141  .00000296  00000-0  32574-4 0  9998,2 56799  69.9991 139.7152 0002964 269.0613  91.0206 14.98331968 57908,6950.187,96.107,574.112,569.992,0.0
